COMMENT,ORIGINATOR,NORAD_CAT_ID,OBJECT_NAME,OBJECT_TYPE,CLASSIFICATION_TYPE,INTLDES,EPOCH,EPOCH_MICROSECONDS,MEAN_MOTION,ECCENTRICITY,INCLINATION,RA_OF_ASC_NODE,ARG_OF_PERICENTER,MEAN_ANOMALY,EPHEMERIS_TYPE,ELEMENT_SET_NO,REV_AT_EPOCH,BSTAR,MEAN_MOTION_DOT,MEAN_MOTION_DDOT,FILE,TLE_LINE0,TLE_LINE1,TLE_LINE2,OBJECT_ID,OBJECT_NUMBER,SEMIMAJOR_AXIS,PERIOD,APOGEE,PERIGEE,DECAYED
GENERATED VIA SPACETRACK.ORG API,18 SPCS,4084,SL-8 DEB,DEBRIS,U,69070C,2023-02-22 09:39:20,204352,14.46287475,0.0023155,74.0668,52.8277,255.8226,104.036,0,999,82067,7.9782e-05,2.6e-06,0,3824148,0 SL-8 DEB,1 04084U 69070C   23053.40231718  .00000260  00000-0  79782-4 0  9992,2 04084  74.0668  52.8277 0023155 255.8226 104.0360 14.46287475820671,1969-070C,4084,7115.937,99.565,754.279,721.325,0
GENERATED VIA SPACETRACK.ORG API,18 SPCS,4084,SL-8 DEB,DEBRIS,U,69070C,2023-02-22 17:57:21,951072,14.46287586,0.0023147,74.0668,52.1833,255.1159,104.7436,0,999,82072,7.3045e-05,2.35e-06,0,3825529,0 SL-8 DEB,1 04084U 69070C   23053.74817073  .00000235  00000-0  73045-4 0  9991,2 04084  74.0668  52.1833 0023147 255.1159 104.7436 14.46287586820721,1969-070C,4084,7115.937,99.565,754.273,721.33,0
GENERATED VIA SPACETRACK.ORG API,18 SPCS,4084,SL-8 DEB,DEBRIS,U,69070C,2023-02-23 10:33:25,430688,14.46288009,0.0023146,74.0669,50.8945,253.7258,106.1354,0,999,82080,7.1993e-05,2.32e-06,0,3828248,0 SL-8 DEB,1  4084U 69070C   23054.43987767  .00000232  00000-0  71993-4 0  9993,2  4084  74.0669  50.8945 0023146 253.7258 106.1354 14.46288009820809,1969-070C,4084,7115.935,99.565,754.271,721.33,0
GENERATED VIA SPACETRACK.ORG API,18 SPCS,4084,SL-8 DEB,DEBRIS,U,69070C,2023-02-23 10:33:25,430688,14.46288009,0.0023146,74.0669,50.8945,253.7258,106.1354,0,999,82082,7.1993e-05,2.32e-06,0,3828819,0 SL-8 DEB,1 04084U 69070C   23054.43987767  .00000232  00000-0  71993-4 0  9993,2 04084  74.0669  50.8945 0023146 253.7258 106.1354 14.46288009820821,1969-070C,4084,7115.935,99.565,754.271,721.33,0
GENERATED VIA SPACETRACK.ORG API,18 SPCS,4084,SL-8 DEB,DEBRIS,U,69070C,2023-02-23 17:11:50,823744,14.46288152,0.002314,74.067,50.379,253.1735,106.6885,0,999,82086,7.0959e-05,2.28e-06,0,3830532,0 SL-8 DEB,1 04084U 69070C   23054.71656046  .00000228  00000-0  70959-4 0  9993,2 04084  74.0670  50.3790 0023140 253.1735 106.6885 14.46288152820861,1969-070C,4084,7115.935,99.565,754.266,721.333,0
GENERATED VIA SPACETRACK.ORG API,18 SPCS,4084,SL-8 DEB,DEBRIS,U,69070C,2023-02-24 09:47:54,293856,14.46288698,0.0023134,74.067,49.0902,251.7717,108.0923,0,999,82096,7.9362e-05,2.58e-06,0,3832867,0 SL-8 DEB,1 04084U 69070C   23055.40826729  .00000258  00000-0  79362-4 0  9997,2 04084  74.0670  49.0902 0023134 251.7717 108.0923 14.46288698820963,1969-070C,4084,7115.933,99.565,754.26,721.336,0
GENERATED VIA SPACETRACK.ORG API,18 SPCS,4084,SL-8 DEB,DEBRIS,U,69070C,2023-02-24 16:26:19,684320,14.46288781,0.0023129,74.067,48.5746,251.2179,108.647,0,999,82100,7.6446e-05,2.48e-06,0,3835059,0 SL-8 DEB,1 04084U 69070C   23055.68495005  .00000248  00000-0  76446-4 0  9995,2 04084  74.0670  48.5746 0023129 251.2179 108.6470 14.46288781821006,1969-070C,4084,7115.933,99.565,754.256,721.339,0
GENERATED VIA SPACETRACK.ORG API,18 SPCS,4084,SL-8 DEB,DEBRIS,U,69070C,2023-02-25 05:43:10,450560,14.46289122,0.0023124,74.0671,47.5436,250.0948,109.7719,0,999,82108,7.916e-05,2.58e-06,0,3837605,0 SL-8 DEB,1 04084U 69070C   23056.23831540  .00000258  00000-0  79160-4 0  9992,2 04084  74.0671  47.5436 0023124 250.0948 109.7719 14.46289122821084,1969-070C,4084,7115.932,99.565,754.251,721.342,0
GENERATED VIA SPACETRACK.ORG API,18 SPCS,4084,SL-8 DEB,DEBRIS,U,69070C,2023-02-25 17:20:24,860544,14.46289393,0.0023107,74.0672,46.6414,249.1304,110.738,0,999,82113,7.8102e-05,2.54e-06,0,3838037,0 SL-8 DEB,1  4084U 69070C   23056.72250996  .00000254  00000-0  78102-4 0  9997,2  4084  74.0672  46.6414 0023107 249.1304 110.7380 14.46289393821139,1969-070C,4084,7115.931,99.565,754.238,721.353,0
GENERATED VIA SPACETRACK.ORG API,18 SPCS,4084,SL-8 DEB,DEBRIS,U,69070C,2023-02-25 17:20:24,860544,14.46289393,0.0023107,74.0672,46.6414,249.1304,110.738,0,999,82115,7.8102e-05,2.54e-06,0,3839003,0 SL-8 DEB,1 04084U 69070C   23056.72250996  .00000254  00000-0  78102-4 0  9997,2 04084  74.0672  46.6414 0023107 249.1304 110.7380 14.46289393821151,1969-070C,4084,7115.931,99.565,754.238,721.353,0
GENERATED VIA SPACETRACK.ORG API,18 SPCS,4084,SL-8 DEB,DEBRIS,U,69070C,2023-02-26 09:56:28,286592,14.46290044,0.0023101,74.0673,45.3527,247.7318,112.1391,0,999,82125,9.0594e-05,2.99e-06,0,3841853,0 SL-8 DEB,1 04084U 69070C   23057.41421628  .00000299  00000-0  90594-4 0  9994,2 04084  74.0673  45.3527 0023101 247.7318 112.1391 14.46290044821250,1969-070C,4084,7115.929,99.565,754.232,721.355,0
GENERATED VIA SPACETRACK.ORG API,18 SPCS,4084,SL-8 DEB,DEBRIS,U,69070C,2023-02-26 21:33:42,682752,14.46290233,0.0023091,74.0674,44.4506,246.7542,113.1186,0,999,82132,8.6063e-05,2.82e-06,0,3843368,0 SL-8 DEB,1 04084U 69070C   23057.89841068  .00000282  00000-0  86063-4 0  9998,2 04084  74.0674  44.4506 0023091 246.7542 113.1186 14.46290233821325,1969-070C,4084,7115.928,99.565,754.224,721.362,0
GENERATED VIA SPACETRACK.ORG API,18 SPCS,4084,SL-8 DEB,DEBRIS,U,69070C,2023-02-27 09:10:57,52128,14.46290933,0.002308,74.0675,43.5484,245.7787,114.096,0,999,82139,0.00010546,3.52e-06,0,3846396,0 SL-8 DEB,1 04084U 69070C   23058.38260477  .00000352  00000-0  10546-3 0  9992,2 04084  74.0675  43.5484 0023080 245.7787 114.0960 14.46290933821393,1969-070C,4084,7115.926,99.565,754.214,721.367,0
GENERATED VIA SPACETRACK.ORG API,18 SPCS,4084,SL-8 DEB,DEBRIS,U,69070C,2023-02-27 15:49:22,320768,14.46292324,0.0023078,74.0675,43.0329,245.2205,114.6552,0,999,82143,0.00015221,5.2e-06,0,3846812,0 SL-8 DEB,1 04084U 69070C   23058.65928612  .00000520  00000-0  15221-3 0  9996,2 04084  74.0675  43.0329 0023078 245.2205 114.6552 14.46292324821437,1969-070C,4084,7115.921,99.565,754.208,721.364,0
GENERATED VIA SPACETRACK.ORG API,18 SPCS,4084,SL-8 DEB,DEBRIS,U,69070C,2023-02-28 08:25:25,759776,14.46291744,0.0023069,74.0677,41.7441,243.8155,116.0631,0,999,82151,0.00011033,3.7e-06,0,3847492,0 SL-8 DEB,1  4084U 69070C   23059.35099259  .00000370  00000-0  11033-3 0  9990,2  4084  74.0677  41.7441 0023069 243.8155 116.0631 14.46291744821515,1969-070C,4084,7115.923,99.565,754.204,721.372,0
GENERATED VIA SPACETRACK.ORG API,18 SPCS,4084,SL-8 DEB,DEBRIS,U,69070C,2023-02-28 08:25:25,759776,14.46291744,0.0023069,74.0677,41.7441,243.8155,116.0631,0,999,82153,0.00011033,3.7e-06,0,3847542,0 SL-8 DEB,1 04084U 69070C   23059.35099259  .00000370  00000-0  11033-3 0  9990,2 04084  74.0677  41.7441 0023069 243.8155 116.0631 14.46291744821537,1969-070C,4084,7115.923,99.565,754.204,721.372,0
GENERATED VIA SPACETRACK.ORG API,18 SPCS,4084,SL-8 DEB,DEBRIS,U,69070C,2023-02-28 16:43:27,443424,14.46291882,0.002306,74.0677,41.0998,243.1158,116.7644,0,999,82158,0.0001053,3.52e-06,0,3847656,0 SL-8 DEB,1 04084U 69070C   23059.69684541  .00000352  00000-0  10530-3 0  9992,2 04084  74.0677  41.0998 0023060 243.1158 116.7644 14.46291882821583,1969-070C,4084,7115.922,99.565,754.197,721.378,0
GENERATED VIA SPACETRACK.ORG API,18 SPCS,4084,SL-8 DEB,DEBRIS,U,69070C,2023-03-01 15:57:56,112192,14.46292512,0.0023037,74.0679,39.2956,241.1498,118.7349,0,999,82172,0.00010035,3.34e-06,0,3848834,0 SL-8 DEB,1 04084U 69070C   23060.66523278  .00000334  00000-0  10035-3 0  9990,2 04084  74.0679  39.2956 0023037 241.1498 118.7349 14.46292512821728,1969-070C,4084,7115.92,99.565,754.178,721.392,0
GENERATED VIA SPACETRACK.ORG API,18 SPCS,4084,SL-8 DEB,DEBRIS,U,69070C,2023-03-02 08:33:59,423328,14.46293033,0.0023029,74.0681,38.0069,239.7511,120.1368,0,999,82180,0.0001002,3.33e-06,0,3849426,0 SL-8 DEB,1  4084U 69070C   23061.35693777  .00000333  00000-0  10020-3 0  9992,2  4084  74.0681  38.0069 0023029 239.7511 120.1368 14.46293033821809,1969-070C,4084,7115.919,99.565,754.171,721.396,0
GENERATED VIA SPACETRACK.ORG API,18 SPCS,4084,SL-8 DEB,DEBRIS,U,69070C,2023-03-02 08:33:59,423328,14.46293033,0.0023029,74.0681,38.0069,239.7511,120.1368,0,999,82182,0.0001002,3.33e-06,0,3849487,0 SL-8 DEB,1 04084U 69070C   23061.35693777  .00000333  00000-0  10020-3 0  9992,2 04084  74.0681  38.0069 0023029 239.7511 120.1368 14.46293033821821,1969-070C,4084,7115.919,99.565,754.171,721.396,0
GENERATED VIA SPACETRACK.ORG API,18 SPCS,4084,SL-8 DEB,DEBRIS,U,69070C,2023-03-03 09:28:04,331712,14.46294209,0.0023008,74.0683,36.0739,237.6498,122.2434,0,999,82197,0.00011477,3.86e-06,0,3850163,0 SL-8 DEB,1 04084U 69070C   23062.39449458  .00000386  00000-0  11477-3 0  9997,2 04084  74.0683  36.0739 0023008 237.6498 122.2434 14.46294209821972,1969-070C,4084,7115.915,99.565,754.152,721.408,0
GENERATED VIA SPACETRACK.ORG API,18 SPCS,4084,SL-8 DEB,DEBRIS,U,69070C,2023-03-04 08:42:32,860512,14.4629528,0.0022986,74.0684,34.2698,235.6818,124.2165,0,999,82209,0.00012389,4.18e-06,0,3850961,0 SL-8 DEB,1  4084U 69070C   23063.36288033  .00000418  00000-0  12389-3 0  9994,2  4084  74.0684  34.2698 0022986 235.6818 124.2165 14.46295280822092,1969-070C,4084,7115.911,99.565,754.133,721.42,0
GENERATED VIA SPACETRACK.ORG API,18 SPCS,4084,SL-8 DEB,DEBRIS,U,69070C,2023-03-04 08:42:32,860512,14.4629528,0.0022986,74.0684,34.2698,235.6818,124.2165,0,999,82211,0.00012389,4.18e-06,0,3851072,0 SL-8 DEB,1 04084U 69070C   23063.36288033  .00000418  00000-0  12389-3 0  9994,2 04084  74.0684  34.2698 0022986 235.6818 124.2165 14.46295280822115,1969-070C,4084,7115.911,99.565,754.133,721.42,0
GENERATED VIA SPACETRACK.ORG API,18 SPCS,4084,SL-8 DEB,DEBRIS,U,69070C,2023-03-05 07:57:01,359936,14.46296184,0.0022964,74.0687,32.4657,233.7072,126.1966,0,999,82225,0.0001275,4.31e-06,0,3851939,0 SL-8 DEB,1 04084U 69070C   23064.33126574  .00000431  00000-0  12750-3 0  9990,2 04084  74.0687  32.4657 0022964 233.7072 126.1966 14.46296184822259,1969-070C,4084,7115.908,99.565,754.114,721.432,0
